{"type": "FeatureCollection", "features": [ {"type": "Feature", "properties": {"norad_id": 66595, "name": "STARLINK-35711", "group": "last-30-days", "lat": 22.656162053318273, "lon": 155.4147575564716, "alt_km": 441.2071911197563, "timestamp": "2025-12-23T16:57:11.059602+00:00", "meta": {"OBJECT_NAME": "STARLINK-35711", "OBJECT_ID": "2025-270H", "EPOCH": "2025-12-23T08:00:03.000384", "MEAN_MOTION": 15.40682767, "ECCENTRICITY": 0.00015389, "INCLINATION": 43.0005, "RA_OF_ASC_NODE": 130.954, "ARG_OF_PERICENTER": 243.6405, "MEAN_ANOMALY": 239.4377, "EPHEMERIS_TYPE": 0, "CLASSIFICATION_TYPE": "U", "NORAD_CAT_ID": 66595, "ELEMENT_SET_NO": 999, "REV_AT_EPOCH": 594, "BSTAR": 0.0019841296, "MEAN_MOTION_DOT": 0.00083442, "MEAN_MOTION_DDOT": 0}, "tle": {"line1": "1 66595U 25270H   25357.33336806  .00083442  00000+0  19841-2 0  9996", "line2": "2 66595  43.0005 130.9540 0001538 243.6405 239.4377 15.40682767  5947"}}, "geometry": {"type": "Point", "coordinates": [155.4147575564716, 22.656162053318273]}}, {"type": "Feature", "properties": {"norad_id": 66596, "name": "STARLINK-35811", "group": "last-30-days", "lat": 42.6531077642564, "lon": -131.89010904813352, "alt_km": 436.3007614905755, "timestamp": "2025-12-23T16:57:11.059613+00:00", "meta": {"OBJECT_NAME": "STARLINK-35811", "OBJECT_ID": "2025-270J", "EPOCH": "2025-12-22T18:45:23.391072", "MEAN_MOTION": 15.40753898, "ECCENTRICITY": 0.00011739, "INCLINATION": 42.9952, "RA_OF_ASC_NODE": 134.8575, "ARG_OF_PERICENTER": 40.5321, "MEAN_ANOMALY": 319.5623, "EPHEMERIS_TYPE": 0, "CLASSIFICATION_TYPE": "U", "NORAD_CAT_ID": 66596, "ELEMENT_SET_NO": 999, "REV_AT_EPOCH": 600, "BSTAR": 0.0013359196, "MEAN_MOTION_DOT": 0.00056012, "MEAN_MOTION_DDOT": 0}, "tle": {"line1": "1 66596U 25270J   25356.78152073  .00056012  00000+0  13359-2 0  9998", "line2": "2 66596  42.9952 134.8575 0001173  40.5321 319.5623 15.40753898  6000"}}, "geometry": {"type": "Point", "coordinates": [-131.89010904813352, 42.6531077642564]}}, {"type": "Feature", "properties": {"norad_id": 66597, "name": "STARLINK-35820", "group": "last-30-days", "lat": 22.50809812192788, "lon": -76.99610327575441, "alt_km": 441.3033228819904, "timestamp": "2025-12-23T16:57:11.059623+00:00", "meta": {"OBJECT_NAME": "STARLINK-35820", "OBJECT_ID": "2025-270K", "EPOCH": "2025-12-23T02:19:12.886752", "MEAN_MOTION": 15.4070508, "ECCENTRICITY": 0.0003044, "INCLINATION": 43.0012, "RA_OF_ASC_NODE": 132.92, "ARG_OF_PERICENTER": 255.7586, "MEAN_ANOMALY": 104.2932, "EPHEMERIS_TYPE": 0, "CLASSIFICATION_TYPE": "U", "NORAD_CAT_ID": 66597, "ELEMENT_SET_NO": 999, "REV_AT_EPOCH": 605, "BSTAR": 5.1155435e-05, "MEAN_MOTION_DOT": 1.834e-05, "MEAN_MOTION_DDOT": 0}, "tle": {"line1": "1 66597U 25270K   25357.09667693  .00001834  00000+0  51155-4 0  9993", "line2": "2 66597  43.0012 132.9200 0003044 255.7586 104.2932 15.40705080  6053"}}, "geometry": {"type": "Point", "coordinates": [-76.99610327575441, 22.50809812192788]}}, {"type": "Feature", "properties": {"norad_id": 66598, "name": "STARLINK-35981", "group": "last-30-days", "lat": -33.18737393661282, "lon": -6.225650160814345, "alt_km": 445.33316941804424, "timestamp": "2025-12-23T16:57:11.059633+00:00", "meta": {"OBJECT_NAME": "STARLINK-35981", "OBJECT_ID": "2025-270L", "EPOCH": "2025-12-22T16:36:32.317344", "MEAN_MOTION": 15.40777654, "ECCENTRICITY": 0.00016022, "INCLINATION": 42.9975, "RA_OF_ASC_NODE": 135.0381, "ARG_OF_PERICENTER": 258.5949, "MEAN_ANOMALY": 101.4727, "EPHEMERIS_TYPE": 0, "CLASSIFICATION_TYPE": "U", "NORAD_CAT_ID": 66598, "ELEMENT_SET_NO": 999, "REV_AT_EPOCH": 573, "BSTAR": 0.0018486578, "MEAN_MOTION_DOT": 0.00077913, "MEAN_MOTION_DDOT": 0}, "tle": {"line1": "1 66598U 25270L   25356.69204071  .00077913  00000+0  18487-2 0  9996", "line2": "2 66598  42.9975 135.0381 0001602 258.5949 101.4727 15.40777654  5737"}}, "geometry": {"type": "Point", "coordinates": [-6.225650160814345, -33.18737393661282]}}, {"type": "Feature", "properties": {"norad_id": 66599, "name": "STARLINK-35930", "group": "last-30-days", "lat": 6.4905533734855245, "lon": 135.87641959119446, "alt_km": 442.88549048740424, "timestamp": "2025-12-23T16:57:11.059643+00:00", "meta": {"OBJECT_NAME": "STARLINK-35930", "OBJECT_ID": "2025-270M", "EPOCH": "2025-12-23T08:00:03.000384", "MEAN_MOTION": 15.40660816, "ECCENTRICITY": 0.00012635, "INCLINATION": 43.0003, "RA_OF_ASC_NODE": 131.0138, "ARG_OF_PERICENTER": 278.1426, "MEAN_ANOMALY": 180.1255, "EPHEMERIS_TYPE": 0, "CLASSIFICATION_TYPE": "U", "NORAD_CAT_ID": 66599, "ELEMENT_SET_NO": 999, "REV_AT_EPOCH": 610, "BSTAR": 0.0015435933, "MEAN_MOTION_DOT": 0.0006464, "MEAN_MOTION_DDOT": 0}, "tle": {"line1": "1 66599U 25270M   25357.33336806  .00064640  00000+0  15436-2 0  9995", "line2": "2 66599  43.0003 131.0138 0001263 278.1426 180.1255 15.40660816  6102"}}, "geometry": {"type": "Point", "coordinates": [135.87641959119446, 6.4905533734855245]}}, {"type": "Feature", "properties": {"norad_id": 66600, "name": "STARLINK-35980", "group": "last-30-days", "lat": -41.699764548009995, "lon": 56.112251243136804, "alt_km": 446.07529363222875, "timestamp": "2025-12-23T16:57:11.059654+00:00", "meta": {"OBJECT_NAME": "STARLINK-35980", "OBJECT_ID": "2025-270N", "EPOCH": "2025-12-23T01:43:45.061248", "MEAN_MOTION": 15.4071598, "ECCENTRICITY": 0.00016224, "INCLINATION": 43.0002, "RA_OF_ASC_NODE": 132.7304, "ARG_OF_PERICENTER": 275.241, "MEAN_ANOMALY": 84.8262, "EPHEMERIS_TYPE": 0, "CLASSIFICATION_TYPE": "U", "NORAD_CAT_ID": 66600, "ELEMENT_SET_NO": 999, "REV_AT_EPOCH": 584, "BSTAR": 0.00089977641, "MEAN_MOTION_DOT": 0.00037487, "MEAN_MOTION_DDOT": 0}, "tle": {"line1": "1 66600U 25270N   25357.07204932  .00037487  00000+0  89978-3 0  9995", "line2": "2 66600  43.0002 132.7304 0001622 275.2410  84.8262 15.40715980  5848"}}, "geometry": {"type": "Point", "coordinates": [56.112251243136804, -41.699764548009995]}}, {"type": "Feature", "properties": {"norad_id": 66601, "name": "STARLINK-35978", "group": "last-30-days", "lat": -2.239752439571162, "lon": -48.28190209253651, "alt_km": 444.2097132075078, "timestamp": "2025-12-23T16:57:11.059664+00:00", "meta": {"OBJECT_NAME": "STARLINK-35978", "OBJECT_ID": "2025-270P", "EPOCH": "2025-12-22T16:49:26.256576", "MEAN_MOTION": 15.40724614, "ECCENTRICITY": 3.635e-05, "INCLINATION": 43.0011, "RA_OF_ASC_NODE": 135.1079, "ARG_OF_PERICENTER": 356.863, "MEAN_ANOMALY": 3.2224, "EPHEMERIS_TYPE": 0, "CLASSIFICATION_TYPE": "U", "NORAD_CAT_ID": 66601, "ELEMENT_SET_NO": 999, "REV_AT_EPOCH": 572, "BSTAR": 0.00026821225, "MEAN_MOTION_DOT": 0.00010926, "MEAN_MOTION_DDOT": 0}, "tle": {"line1": "1 66601U 25270P   25356.70099834  .00010926  00000+0  26821-3 0  9995", "line2": "2 66601  43.0011 135.1079 0000363 356.8630   3.2224 15.40724614  5720"}}, "geometry": {"type": "Point", "coordinates": [-48.28190209253651, -2.239752439571162]}}, {"type": "Feature", "properties": {"norad_id": 66602, "name": "STARLINK-36050", "group": "last-30-days", "lat": 40.10175738151734, "lon": -115.15202848439071, "alt_km": 439.6168064586527, "timestamp": "2025-12-23T16:57:11.059674+00:00", "meta": {"OBJECT_NAME": "STARLINK-36050", "OBJECT_ID": "2025-270Q", "EPOCH": "2025-12-21T19:21:49.081248", "MEAN_MOTION": 15.40749091, "ECCENTRICITY": 0.00034479, "INCLINATION": 43.001, "RA_OF_ASC_NODE": 140.4448, "ARG_OF_PERICENTER": 267.6242, "MEAN_ANOMALY": 92.422, "EPHEMERIS_TYPE": 0, "CLASSIFICATION_TYPE": "U", "NORAD_CAT_ID": 66602, "ELEMENT_SET_NO": 999, "REV_AT_EPOCH": 564, "BSTAR": 0.00045713662, "MEAN_MOTION_DOT": 0.00018872, "MEAN_MOTION_DDOT": 0}, "tle": {"line1": "1 66602U 25270Q   25355.80681807  .00018872  00000+0  45714-3 0  9993", "line2": "2 66602  43.0010 140.4448 0003447 267.6242  92.4220 15.40749091  5646"}}, "geometry": {"type": "Point", "coordinates": [-115.15202848439071, 40.10175738151734]}}, {"type": "Feature", "properties": {"norad_id": 66603, "name": "STARLINK-36048", "group": "last-30-days", "lat": -26.382194726345194, "lon": -18.620239404187636, "alt_km": 445.48204314165105, "timestamp": "2025-12-23T16:57:11.059684+00:00", "meta": {"OBJECT_NAME": "STARLINK-36048", "OBJECT_ID": "2025-270R", "EPOCH": "2025-12-22T16:39:45.337536", "MEAN_MOTION": 15.40721586, "ECCENTRICITY": 0.00016747, "INCLINATION": 43.0018, "RA_OF_ASC_NODE": 135.0558, "ARG_OF_PERICENTER": 265.539, "MEAN_ANOMALY": 94.5275, "EPHEMERIS_TYPE": 0, "CLASSIFICATION_TYPE": "U", "NORAD_CAT_ID": 66603, "ELEMENT_SET_NO": 999, "REV_AT_EPOCH": 578, "BSTAR": 0.0010075194, "MEAN_MOTION_DOT": 0.00042046, "MEAN_MOTION_DDOT": 0}, "tle": {"line1": "1 66603U 25270R   25356.69427474  .00042046  00000+0  10075-2 0  9991", "line2": "2 66603  43.0018 135.0558 0001674 265.5390  94.5275 15.40721586  5785"}}, "geometry": {"type": "Point", "coordinates": [-18.620239404187636, -26.382194726345194]}}, {"type": "Feature", "properties": {"norad_id": 66604, "name": "STARLINK-35977", "group": "last-30-days", "lat": -38.32342143015961, "lon": 7.171132070893667, "alt_km": 445.4836103820944, "timestamp": "2025-12-23T16:57:11.059695+00:00", "meta": {"OBJECT_NAME": "STARLINK-35977", "OBJECT_ID": "2025-270S", "EPOCH": "2025-12-22T18:06:39.132576", "MEAN_MOTION": 15.40711845, "ECCENTRICITY": 0.00026005, "INCLINATION": 43.0027, "RA_OF_ASC_NODE": 134.6473, "ARG_OF_PERICENTER": 269.9345, "MEAN_ANOMALY": 90.1213, "EPHEMERIS_TYPE": 0, "CLASSIFICATION_TYPE": "U", "NORAD_CAT_ID": 66604, "ELEMENT_SET_NO": 999, "REV_AT_EPOCH": 589, "BSTAR": 0.0007530696, "MEAN_MOTION_DOT": 0.00031297, "MEAN_MOTION_DDOT": 0}, "tle": {"line1": "1 66604U 25270S   25356.75461959  .00031297  00000+0  75307-3 0  9991", "line2": "2 66604  43.0027 134.6473 0002600 269.9345  90.1213 15.40711845  5898"}}, "geometry": {"type": "Point", "coordinates": [7.171132070893667, -38.32342143015961]}}]}